NORAD_CAT_ID,OBJECT_NAME,OBJECT_TYPE,EPOCH,MEAN_MOTION,ECCENTRICITY,INCLINATION,RA_OF_ASC_NODE,ARG_OF_PERICENTER,MEAN_ANOMALY,BSTAR,MEAN_MOTION_DOT,MEAN_MOTION_DDOT,TLE_LINE0,TLE_LINE1,TLE_LINE2,SEMIMAJOR_AXIS,PERIOD,APOGEE,PERIGEE,DECAYED
55741.0,STARLINK-5592,PAYLOAD,2023-11-13 03:32:30,14.98339277,0.0002762,69.9999,221.5253,269.1811,90.9031,7.8495e-05,8.44e-06,0.0,0 STARLINK-5592,1 55741U 23028A   23317.14758052  .00000844  00000-0  78495-4 0  9998,2 55741  69.9999 221.5253 0002762 269.1811  90.9031 14.98339277 39074,6950.164,96.106,573.949,570.11,0.0
55741.0,STARLINK-5592,PAYLOAD,2023-11-13 11:33:11,14.98331979,0.000276,70.0,220.6844,272.8808,87.2035,6.2866e-05,6.57e-06,0.0,0 STARLINK-5592,1 55741U 23028A   23317.48138504  .00000657  00000-0  62866-4 0  9996,2 55741  70.0000 220.6844 0002760 272.8808  87.2035 14.98331979 39121,6950.187,96.107,573.97,570.134,0.0
55741.0,STARLINK-5592,PAYLOAD,2023-11-14 03:34:32,14.98332041,0.000277,70.0,219.0013,272.8842,87.1999,0.00011848,1.321e-05,0.0,0 STARLINK-5592,1 55741U 23028A   23318.14898354  .00001321  00000-0  11848-3 0  9998,2 55741  70.0000 219.0013 0002770 272.8842  87.1999 14.98332041 39422,6950.187,96.107,573.977,570.126,0.0
55741.0,STARLINK-5592,PAYLOAD,2023-11-15 03:36:33,14.98333426,0.0002716,70.0005,216.4764,272.6478,87.437,9.0435e-06,1.5e-07,0.0,0 STARLINK-5592,1 55741U 23028A   23319.15038395  .00000015  00000-0  90435-5 0  9991,2 55741  70.0005 216.4764 0002716 272.6478  87.4370 14.98333426 39372,6950.182,96.107,573.935,570.16,0.0
55741.0,STARLINK-5592,PAYLOAD,2023-11-16 03:38:34,14.98330924,0.0002736,70.0009,213.9524,269.0261,91.0585,4.4415e-05,4.37e-06,0.0,0 STARLINK-5592,1 55741U 23028A   23320.15178308  .00000437  00000-0  44415-4 0  9996,2 55741  70.0009 213.9524 0002736 269.0261  91.0585 14.98330924 39520,6950.19,96.107,573.957,570.153,0.0
55741.0,STARLINK-5592,PAYLOAD,2023-11-16 22:52:10,14.98330526,0.000273,70.0008,211.9328,268.6017,91.483,4.464e-05,4.4e-06,0.0,0 STARLINK-5592,1 55741U 23028A   23320.95290272  .00000440  00000-0  44640-4 0  9993,2 55741  70.0008 211.9328 0002730 268.6017  91.4830 14.98330526 39847,6950.191,96.107,573.954,570.159,0.0
55741.0,STARLINK-5592,PAYLOAD,2023-11-17 00:28:18,14.9833058,0.0002713,70.0007,211.7645,268.4725,91.6123,4.5843e-05,4.54e-06,0.0,0 STARLINK-5592,1 55741U 23028A   23321.01966265  .00000454  00000-0  45843-4 0  9994,2 55741  70.0007 211.7645 0002713 268.4725  91.6123 14.98330580 39859,6950.191,96.107,573.942,570.171,0.0
55741.0,STARLINK-5592,PAYLOAD,2023-11-17 22:54:11,14.98331301,0.0002658,69.9999,209.4074,279.9182,80.1677,-5.8517e-06,-1.63e-06,0.0,0 STARLINK-5592,1 55741U 23028A   23321.95430514 -.00000163  00000-0 -58517-5 0  9992,2 55741  69.9999 209.4074 0002658 279.9182  80.1677 14.98331301 39992,6950.189,96.107,573.901,570.207,0.0
55741.0,STARLINK-5592,PAYLOAD,2023-11-18 02:06:27,14.98342091,0.0002912,69.9995,209.0717,269.7033,90.3792,-0.00022031,-2.721e-05,0.0,0 STARLINK-5592,1 55741U 23028A   23322.08782354 -.00002721  00000-0 -22031-3 0  9991,2 55741  69.9995 209.0717 0002912 269.7033  90.3792 14.98342091 39813,6950.156,96.106,574.044,569.997,0.0
55741.0,STARLINK-5592,PAYLOAD,2023-11-18 10:07:08,14.98339629,0.0002894,69.9994,208.2296,268.0605,92.0223,-0.00014757,-1.854e-05,0.0,0 STARLINK-5592,1 55741U 23028A   23322.42162145 -.00001854  00000-0 -14757-3 0  9991,2 55741  69.9994 208.2296 0002894 268.0605  92.0223 14.98339629 40061,6950.163,96.106,574.039,570.017,0.0
55741.0,STARLINK-5592,PAYLOAD,2023-11-18 22:56:12,14.98323703,0.0002837,69.9991,206.8824,269.831,90.2524,0.00013952,1.572e-05,0.0,0 STARLINK-5592,1 55741U 23028A   23322.95570419  .00001572  00000-0  13952-3 0  9997,2 55741  69.9991 206.8824 0002837 269.8310  90.2524 14.98323703 40147,6950.212,96.107,574.049,570.106,0.0
55741.0,STARLINK-5592,PAYLOAD,2023-11-19 02:08:28,14.98310236,0.0002614,69.9994,206.5459,271.2392,88.8468,0.00047301,5.552e-05,0.0,0 STARLINK-5592,1 55741U 23028A   23323.08922401  .00005552  00000-0  47301-3 0  9991,2 55741  69.9994 206.5459 0002614 271.2392  88.8468 14.98310236 39966,6950.254,96.108,573.936,570.302,0.0
55741.0,STARLINK-5592,PAYLOAD,2023-11-19 10:09:09,14.9833042,0.0002631,69.9998,205.7044,271.5378,88.5479,5.7221e-05,5.9e-06,0.0,0 STARLINK-5592,1 55741U 23028A   23323.42302300  .00000590  00000-0  57221-4 0  9999,2 55741  69.9998 205.7044 0002631 271.5378  88.5479 14.98330420 40011,6950.192,96.107,573.885,570.228,0.0
55741.0,STARLINK-5592,PAYLOAD,2023-11-19 22:58:13,14.98330012,0.0002887,69.9991,204.3577,273.4852,86.5977,0.0001065,1.178e-05,0.0,0 STARLINK-5592,1 55741U 23028A   23323.95710056  .00001178  00000-0  10650-3 0  9995,2 55741  69.9991 204.3577 0002887 273.4852  86.5977 14.98330012 40299,6950.193,96.107,574.064,570.051,0.0
55741.0,STARLINK-5592,PAYLOAD,2023-11-20 00:34:21,14.98330565,0.0002818,69.9994,204.1897,271.4329,88.6507,0.00010104,1.113e-05,0.0,0 STARLINK-5592,1 55741U 23028A   23324.02386001  .00001113  00000-0  10104-3 0  9996,2 55741  69.9994 204.1897 0002818 271.4329  88.6507 14.98330565 40303,6950.191,96.107,574.015,570.098,0.0
55741.0,STARLINK-5592,PAYLOAD,2023-11-20 19:47:57,14.98340557,0.0002853,69.9993,202.1698,271.2897,88.7935,8.2935e-05,8.97e-06,0.0,0 STARLINK-5592,1 55741U 23028A   23324.82497157  .00000897  00000-0  82935-4 0  9999,2 55741  69.9993 202.1698 0002853 271.2897  88.7935 14.98340557 40225,6950.16,96.106,574.008,570.042,0.0
55741.0,STARLINK-5592,PAYLOAD,2023-11-21 08:37:02,14.98330424,0.0001914,70.0012,200.8238,278.5287,81.5655,1.6222e-05,1.01e-06,0.0,0 STARLINK-5592,1 55741U 23028A   23325.35906022  .00000101  00000-0  16222-4 0  9998,2 55741  70.0012 200.8238 0001914 278.5287  81.5655 14.98330424 40306,6950.192,96.107,573.387,570.726,0.0
55741.0,STARLINK-5592,PAYLOAD,2023-11-21 21:26:07,14.98328221,0.0002672,69.9992,199.477,270.5649,89.5204,-3.8518e-05,-5.52e-06,0.0,0 STARLINK-5592,1 55741U 23028A   23325.89313983 -.00000552  00000-0 -38518-4 0  9999,2 55741  69.9992 199.4770 0002672 270.5649  89.5204 14.98328221 40580,6950.198,96.107,573.92,570.206,0.0
55741.0,STARLINK-5592,PAYLOAD,2023-11-22 02:14:31,14.98329306,0.000264,69.9993,198.9723,269.7829,90.3027,-1.4947e-05,-2.71e-06,0.0,0 STARLINK-5592,1 55741U 23028A   23326.09341869 -.00000271  00000-0 -14947-4 0  9994,2 55741  69.9993 198.9723 0002640 269.7829  90.3027 14.98329306 40610,6950.195,96.107,573.895,570.225,0.0
55741.0,STARLINK-5592,PAYLOAD,2023-11-22 19:51:59,14.98334477,0.0002632,69.9995,197.1211,267.0348,93.051,-4.9847e-05,-6.88e-06,0.0,0 STARLINK-5592,1 55741U 23028A   23326.82777543 -.00000688  00000-0 -49847-4 0  9996,2 55741  69.9995 197.1211 0002632 267.0348  93.0510 14.98334477 40525,6950.179,96.107,573.873,570.215,0.0
55741.0,STARLINK-5592,PAYLOAD,2023-11-22 21:28:07,14.98334084,0.0002646,69.9994,196.9527,266.6175,93.4682,-5.4158e-05,-7.39e-06,0.0,0 STARLINK-5592,1 55741U 23028A   23326.89453602 -.00000739  00000-0 -54158-4 0  9998,2 55741  69.9994 196.9527 0002646 266.6175  93.4682 14.98334084 40730,6950.18,96.107,573.884,570.206,0.0
55741.0,STARLINK-5592,PAYLOAD,2023-11-23 02:16:31,14.98336248,0.0002723,69.9993,196.4477,269.0449,91.0398,-2.2095e-05,-3.57e-06,0.0,0 STARLINK-5592,1 55741U 23028A   23327.09481345 -.00000357  00000-0 -22095-4 0  9997,2 55741  69.9993 196.4477 0002723 269.0449  91.0398 14.98336248 40760,6950.174,96.107,573.931,570.146,0.0
55741.0,STARLINK-5592,PAYLOAD,2023-11-23 19:54:01,14.98321743,0.00026,69.9996,194.5963,261.0813,99.0051,5.4181e-05,5.53e-06,0.0,0 STARLINK-5592,1 55741U 23028A   23327.82918189  .00000553  00000-0  54181-4 0  9996,2 55741  69.9996 194.5963 0002600 261.0813  99.0051 14.98321743 40671,6950.218,96.108,573.89,570.276,0.0
55741.0,STARLINK-5592,PAYLOAD,2023-11-23 21:30:09,14.9832056,0.0002497,69.9994,194.4276,257.7329,102.355,3.2985e-05,3.01e-06,0.0,0 STARLINK-5592,1 55741U 23028A   23327.89594358  .00000301  00000-0  32985-4 0  9990,2 55741  69.9994 194.4276 0002497 257.7329 102.3550 14.98320560 40884,6950.222,96.108,573.823,570.352,0.0
55741.0,STARLINK-5592,PAYLOAD,2023-11-24 00:42:25,14.98319785,0.0002605,69.9994,194.091,260.0311,100.0554,2.3225e-05,1.84e-06,0.0,0 STARLINK-5592,1 55741U 23028A   23328.02946504  .00000184  00000-0  23225-4 0  9996,2 55741  69.9994 194.0910 0002605 260.0311 100.0554 14.98319785 40903,6950.224,96.108,573.9,570.279,0.0
55741.0,STARLINK-5592,PAYLOAD,2023-11-24 19:56:02,14.98329816,0.0002677,69.999,192.0701,258.4643,101.6215,4.7534e-05,4.74e-06,0.0,0 STARLINK-5592,1 55741U 23028A   23328.83058076  .00000474  00000-0  47534-4 0  9994,2 55741  69.9990 192.0701 0002677 258.4643 101.6215 14.98329816 40821,6950.193,96.107,573.919,570.198,0.0
55741.0,STARLINK-5592,PAYLOAD,2023-11-24 21:32:10,14.98330369,0.0002665,69.999,191.9017,257.9994,102.0866,5.4399e-05,5.56e-06,0.0,0 STARLINK-5592,1 55741U 23028A   23328.89734026  .00000556  00000-0  54399-4 0  9994,2 55741  69.9990 191.9017 0002665 257.9994 102.0866 14.98330369 41035,6950.192,96.107,573.909,570.205,0.0
55741.0,STARLINK-5592,PAYLOAD,2023-11-25 00:44:26,14.98331449,0.0002668,69.9989,191.5646,263.4975,96.588,6.9267e-05,7.34e-06,0.0,0 STARLINK-5592,1 55741U 23028A   23329.03085954  .00000734  00000-0  69267-4 0  9998,2 55741  69.9989 191.5646 0002668 263.4975  96.5880 14.98331449 41056,6950.188,96.107,573.908,570.199,0.0
55741.0,STARLINK-5592,PAYLOAD,2023-11-25 21:34:10,14.98335226,0.0002657,69.9987,189.3764,264.7319,95.3537,0.00021997,2.533e-05,0.0,0 STARLINK-5592,1 55741U 23028A   23329.89873541  .00002533  00000-0  21997-3 0  9995,2 55741  69.9987 189.3764 0002657 264.7319  95.3537 14.98335226 41181,6950.177,96.107,573.888,570.195,0.0
55741.0,STARLINK-5592,PAYLOAD,2023-11-26 00:46:26,14.98339848,0.0002591,69.999,189.0407,262.7442,97.3423,0.00027753,3.221e-05,0.0,0 STARLINK-5592,1 55741U 23028A   23330.03225161  .00003221  00000-0  27753-3 0  9993,2 55741  69.9990 189.0407 0002591 262.7442  97.3423 14.98339848 41009,6950.162,96.106,573.828,570.227,0.0
